SWIFT                   
1 28485U 04047A   23117.46141372  .00007856  00000+0  43817-3 0  9995
2 28485  20.5561 261.3582 0009534 332.7489  27.2446 15.10230846 11087
CLOUDSAT                
1 29107U 06016A   23117.53468932  .00000635  00000+0  13081-3 0  9995
2 29107  98.3711  86.5002 0004183  59.0814 301.0798 14.63980427905123
CALIPSO                 
1 29108U 06016B   23116.85085817  .00002082  00000+0  40710-3 0  9994
2 29108  98.3712  85.2908 0001462  85.8900 274.2468 14.63962708904852
HINODE (SOLAR-B)        
1 29479U 06041A   23116.79739041  .00001152  00000+0  22178-3 0  9996
2 29479  98.1091 132.8599 0017280 322.2904  37.7087 14.65368713886635
SJ-6C                   
1 29505U 06046A   23117.52687139  .00005968  00000+0  50468-3 0  9995
2 29505  97.7523 141.4886 0004942 143.4312 216.7315 14.98422154899680
SJ-6D                   
1 29506U 06046B   23117.18023302  .00002910  00000+0  27118-3 0  9994
2 29506  97.7738 140.8449 0000576 214.7003 145.4153 14.95027861898999
AGILE                   
1 31135U 07013A   23116.46344556  .00028825  00000+0  46080-3 0  9999
2 31135   2.4682 267.6441 0007391  16.3386 343.6907 15.50364808525367
AIM                     
1 31304U 07015A   23116.75032152  .00018546  00000+0  68333-3 0  9991
2 31304  97.8682  54.5673 0004415  40.3133 319.8432 15.27874409878821
FGRST (GLAST)           
1 33053U 08029A   23116.88931294  .00003288  00000+0  16067-3 0  9993
2 33053  25.5814 187.9249 0011377 213.7516 146.2296 15.13803916821216
WISE                    
1 36119U 09071A   23116.52383069  .00013127  00000+0  32565-3 0  9993
2 36119  97.2015 150.1417 0000853 171.0055 189.1207 15.40487201743565
SDO                     
1 36395U 10005A   23116.48427190 -.00000051  00000+0  00000+0 0  9995
2 36395  32.2743 104.1776 0001812 241.7211 300.8760  1.00273473 48558
CRYOSAT 2               
1 36508U 10013A   23116.90820707  .00000306  00000+0  75242-4 0  9995
2 36508  92.0261   0.0210 0001577 253.9099 106.1935 14.51903329691619
X-SAT                   
1 37389U 11015C   23117.49111242  .00000205  00000+0  10593-3 0  9993
2 37389  98.3058 139.3044 0015320 108.9096 251.3752 14.24515553624915
GCOM-W1 (SHIZUKU)       
1 38337U 12025A   23117.46856159  .00000980  00000+0  22729-3 0  9993
2 38337  98.2077  58.5364 0001794  56.7174  58.7007 14.57151846582038
NUSTAR                  
1 38358U 12031A   23117.06990167  .00004731  00000+0  38768-3 0  9995
2 38358   6.0258 238.9806 0011180 196.7956 163.1802 14.91593175591810
NEOSSAT                 
1 39089U 13009D   23117.14702449  .00000292  00000+0  11775-3 0  9993
2 39089  98.4123 310.4492 0012387  67.1563 293.0929 14.34848074532209
BRITE-AUSTRIA           
1 39091U 13009F   23116.76971433  .00000298  00000+0  11854-3 0  9998
2 39091  98.3941 310.7564 0011553  67.5462 292.6947 14.35459504532378
