[{"OBJECT_NAME":"SWIFT","OBJECT_ID":"2004-047A","EPOCH":"2023-04-27T11:04:26.145408","MEAN_MOTION":15.10230846,"ECCENTRICITY":0.0009534,"INCLINATION":20.5561,"RA_OF_ASC_NODE":261.3582,"ARG_OF_PERICENTER":332.7489,"MEAN_ANOMALY":27.2446,"EPHEMERIS_TYPE":0,"CLASSIFICATION_TYPE":"U","NORAD_CAT_ID":28485,"ELEMENT_SET_NO":999,"REV_AT_EPOCH":1108,"BSTAR":0.00043817,"MEAN_MOTION_DOT":7.856e-5,"MEAN_MOTION_DDOT":0},{"OBJECT_NAME":"CLOUDSAT","OBJECT_ID":"2006-016A","EPOCH":"2023-04-27T12:49:57.157248","MEAN_MOTION":14.63980427,"ECCENTRICITY":0.0004183,"INCLINATION":98.3711,"RA_OF_ASC_NODE":86.5002,"ARG_OF_PERICENTER":59.0814,"MEAN_ANOMALY":301.0798,"EPHEMERIS_TYPE":0,"CLASSIFICATION_TYPE":"U","NORAD_CAT_ID":29107,"ELEMENT_SET_NO":999,"REV_AT_EPOCH":90512,"BSTAR":0.00013081,"MEAN_MOTION_DOT":6.35e-6,"MEAN_MOTION_DDOT":0},{"OBJECT_NAME":"CALIPSO","OBJECT_ID":"2006-016B","EPOCH":"2023-04-26T20:25:14.145888","MEAN_MOTION":14.63962708,"ECCENTRICITY":0.0001462,"INCLINATION":98.3712,"RA_OF_ASC_NODE":85.2908,"ARG_OF_PERICENTER":85.89,"MEAN_ANOMALY":274.2468,"EPHEMERIS_TYPE":0,"CLASSIFICATION_TYPE":"U","NORAD_CAT_ID":29108,"ELEMENT_SET_NO":999,"REV_AT_EPOCH":90485,"BSTAR":0.0004071,"MEAN_MOTION_DOT":2.082e-5,"MEAN_MOTION_DDOT":0},{"OBJECT_NAME":"HINODE (SOLAR-B)","OBJECT_ID":"2006-041A","EPOCH":"2023-04-26T19:08:14.531424","MEAN_MOTION":14.65368713,"ECCENTRICITY":0.001728,"INCLINATION":98.1091,"RA_OF_ASC_NODE":132.8599,"ARG_OF_PERICENTER":322.2904,"MEAN_ANOMALY":37.7087,"EPHEMERIS_TYPE":0,"CLASSIFICATION_TYPE":"U","NORAD_CAT_ID":29479,"ELEMENT_SET_NO":999,"REV_AT_EPOCH":88663,"BSTAR":0.00022178,"MEAN_MOTION_DOT":1.152e-5,"MEAN_MOTION_DDOT":0},{"OBJECT_NAME":"SJ-6C","OBJECT_ID":"2006-046A","EPOCH":"2023-04-27T12:38:41.688096","MEAN_MOTION":14.98422154,"ECCENTRICITY":0.0004942,"INCLINATION":97.7523,"RA_OF_ASC_NODE":141.4886,"ARG_OF_PERICENTER":143.4312,"MEAN_ANOMALY":216.7315,"EPHEMERIS_TYPE":0,"CLASSIFICATION_TYPE":"U","NORAD_CAT_ID":29505,"ELEMENT_SET_NO":999,"REV_AT_EPOCH":89968,"BSTAR":0.00050468,"MEAN_MOTION_DOT":5.968e-5,"MEAN_MOTION_DDOT":0},{"OBJECT_NAME":"SJ-6D","OBJECT_ID":"2006-046B","EPOCH":"2023-04-27T04:19:32.132928","MEAN_MOTION":14.95027861,"ECCENTRICITY":5.76e-5,"INCLINATION":97.7738,"RA_OF_ASC_NODE":140.8449,"ARG_OF_PERICENTER":214.7003,"MEAN_ANOMALY":145.4153,"EPHEMERIS_TYPE":0,"CLASSIFICATION_TYPE":"U","NORAD_CAT_ID":29506,"ELEMENT_SET_NO":999,"REV_AT_EPOCH":89899,"BSTAR":0.00027118,"MEAN_MOTION_DOT":2.91e-5,"MEAN_MOTION_DDOT":0},{"OBJECT_NAME":"AGILE","OBJECT_ID":"2007-013A","EPOCH":"2023-04-26T11:07:21.696384","MEAN_MOTION":15.50364808,"ECCENTRICITY":0.0007391,"INCLINATION":2.4682,"RA_OF_ASC_NODE":267.6441,"ARG_OF_PERICENTER":16.3386,"MEAN_ANOMALY":343.6907,"EPHEMERIS_TYPE":0,"CLASSIFICATION_TYPE":"U","NORAD_CAT_ID":31135,"ELEMENT_SET_NO":999,"REV_AT_EPOCH":52536,"BSTAR":0.0004608,"MEAN_MOTION_DOT":0.00028825,"MEAN_MOTION_DDOT":0},{"OBJECT_NAME":"AIM","OBJECT_ID":"2007-015A","EPOCH":"2023-04-26T18:00:27.779328","MEAN_MOTION":15.27874409,"ECCENTRICITY":0.0004415,"INCLINATION":97.8682,"RA_OF_ASC_NODE":54.5673,"ARG_OF_PERICENTER":40.3133,"MEAN_ANOMALY":319.8432,"EPHEMERIS_TYPE":0,"CLASSIFICATION_TYPE":"U","NORAD_CAT_ID":31304,"ELEMENT_SET_NO":999,"REV_AT_EPOCH":87882,"BSTAR":0.00068333,"MEAN_MOTION_DOT":0.00018546,"MEAN_MOTION_DDOT":0},{"OBJECT_NAME":"FGRST (GLAST)","OBJECT_ID":"2008-029A","EPOCH":"2023-04-26T21:20:36.638016","MEAN_MOTION":15.13803916,"ECCENTRICITY":0.0011377,"INCLINATION":25.5814,"RA_OF_ASC_NODE":187.9249,"ARG_OF_PERICENTER":213.7516,"MEAN_ANOMALY":146.2296,"EPHEMERIS_TYPE":0,"CLASSIFICATION_TYPE":"U","NORAD_CAT_ID":33053,"ELEMENT_SET_NO":999,"REV_AT_EPOCH":82121,"BSTAR":0.00016067,"MEAN_MOTION_DOT":3.288e-5,"MEAN_MOTION_DDOT":0},{"OBJECT_NAME":"WISE","OBJECT_ID":"2009-071A","EPOCH":"2023-04-26T12:34:18.971616","MEAN_MOTION":15.40487201,"ECCENTRICITY":8.53e-5,"INCLINATION":97.2015,"RA_OF_ASC_NODE":150.1417,"ARG_OF_PERICENTER":171.0055,"MEAN_ANOMALY":189.1207,"EPHEMERIS_TYPE":0,"CLASSIFICATION_TYPE":"U","NORAD_CAT_ID":36119,"ELEMENT_SET_NO":999,"REV_AT_EPOCH":74356,"BSTAR":0.00032565,"MEAN_MOTION_DOT":0.00013127,"MEAN_MOTION_DDOT":0},{"OBJECT_NAME":"SDO","OBJECT_ID":"2010-005A","EPOCH":"2023-04-26T11:37:21.092160","MEAN_MOTION":1.00273473,"ECCENTRICITY":0.0001812,"INCLINATION":32.2743,"RA_OF_ASC_NODE":104.1776,"ARG_OF_PERICENTER":241.7211,"MEAN_ANOMALY":300.876,"EPHEMERIS_TYPE":0,"CLASSIFICATION_TYPE":"U","NORAD_CAT_ID":36395,"ELEMENT_SET_NO":999,"REV_AT_EPOCH":4855,"BSTAR":0,"MEAN_MOTION_DOT":-5.1e-7,"MEAN_MOTION_DDOT":0},{"OBJECT_NAME":"CRYOSAT 2","OBJECT_ID":"2010-013A","EPOCH":"2023-04-26T21:47:49.090848","MEAN_MOTION":14.51903329,"ECCENTRICITY":0.0001577,"INCLINATION":92.0261,"RA_OF_ASC_NODE":0.021,"ARG_OF_PERICENTER":253.9099,"MEAN_ANOMALY":106.1935,"EPHEMERIS_TYPE":0,"CLASSIFICATION_TYPE":"U","NORAD_CAT_ID":36508,"ELEMENT_SET_NO":999,"REV_AT_EPOCH":69161,"BSTAR":7.5242e-5,"MEAN_MOTION_DOT":3.06e-6,"MEAN_MOTION_DDOT":0},{"OBJECT_NAME":"X-SAT","OBJECT_ID":"2011-015C","EPOCH":"2023-04-27T11:47:12.113088","MEAN_MOTION":14.24515553,"ECCENTRICITY":0.001532,"INCLINATION":98.3058,"RA_OF_ASC_NODE":139.3044,"ARG_OF_PERICENTER":108.9096,"MEAN_ANOMALY":251.3752,"EPHEMERIS_TYPE":0,"CLASSIFICATION_TYPE":"U","NORAD_CAT_ID":37389,"ELEMENT_SET_NO":999,"REV_AT_EPOCH":62491,"BSTAR":0.00010593,"MEAN_MOTION_DOT":2.05e-6,"MEAN_MOTION_DDOT":0},{"OBJECT_NAME":"GCOM-W1 (SHIZUKU)","OBJECT_ID":"2012-025A","EPOCH":"2023-04-27T11:14:43.721376","MEAN_MOTION":14.57151846,"ECCENTRICITY":0.0001794,"INCLINATION":98.2077,"RA_OF_ASC_NODE":58.5364,"ARG_OF_PERICENTER":56.7174,"MEAN_ANOMALY":58.7007,"EPHEMERIS_TYPE":0,"CLASSIFICATION_TYPE":"U","NORAD_CAT_ID":38337,"ELEMENT_SET_NO":999,"REV_AT_EPOCH":58203,"BSTAR":0.00022729,"MEAN_MOTION_DOT":9.8e-6,"MEAN_MOTION_DDOT":0},{"OBJECT_NAME":"NUSTAR","OBJECT_ID":"2012-031A","EPOCH":"2023-04-27T01:40:39.504288","MEAN_MOTION":14.91593175,"ECCENTRICITY":0.001118,"INCLINATION":6.0258,"RA_OF_ASC_NODE":238.9806,"ARG_OF_PERICENTER":196.7956,"MEAN_ANOMALY":163.1802,"EPHEMERIS_TYPE":0,"CLASSIFICATION_TYPE":"U","NORAD_CAT_ID":38358,"ELEMENT_SET_NO":999,"REV_AT_EPOCH":59181,"BSTAR":0.00038768,"MEAN_MOTION_DOT":4.731e-5,"MEAN_MOTION_DDOT":0},{"OBJECT_NAME":"NEOSSAT","OBJECT_ID":"2013-009D","EPOCH":"2023-04-27T03:31:42.915936","MEAN_MOTION":14.34848074,"ECCENTRICITY":0.0012387,"INCLINATION":98.4123,"RA_OF_ASC_NODE":310.4492,"ARG_OF_PERICENTER":67.1563,"MEAN_ANOMALY":293.0929,"EPHEMERIS_TYPE":0,"CLASSIFICATION_TYPE":"U","NORAD_CAT_ID":39089,"ELEMENT_SET_NO":999,"REV_AT_EPOCH":53220,"BSTAR":0.00011775,"MEAN_MOTION_DOT":2.92e-6,"MEAN_MOTION_DDOT":0},{"OBJECT_NAME":"BRITE-AUSTRIA","OBJECT_ID":"2013-009F","EPOCH":"2023-04-26T18:28:23.318112","MEAN_MOTION":14.35459504,"ECCENTRICITY":0.0011553,"INCLINATION":98.3941,"RA_OF_ASC_NODE":310.7564,"ARG_OF_PERICENTER":67.5462,"MEAN_ANOMALY":292.6947,"EPHEMERIS_TYPE":0,"CLASSIFICATION_TYPE":"U","NORAD_CAT_ID":39091,"ELEMENT_SET_NO":999,"REV_AT_EPOCH":53237,"BSTAR":0.00011854,"MEAN_MOTION_DOT":2.98e-6,"MEAN_MOTION_DDOT":0}]
